[{"OBJECT_NAME":"SPACEMOBILE-002","OBJECT_ID":"2024-163D","EPOCH":"2026-03-09T08:46:52.476096","MEAN_MOTION":15.21108485,"ECCENTRICITY":0.00071237,"INCLINATION":52.9822,"RA_OF_ASC_NODE":48.2355,"ARG_OF_PERICENTER":175.9464,"MEAN_ANOMALY":184.159,"EPHEMERIS_TYPE":0,"CLASSIFICATION_TYPE":"U","NORAD_CAT_ID":61048,"ELEMENT_SET_NO":999,"REV_AT_EPOCH":8257,"BSTAR":0.00072579441,"MEAN_MOTION_DOT":0.00016068,"MEAN_MOTION_DDOT":0},{"OBJECT_NAME":"GHGSAT-C12","OBJECT_ID":"2025-135B","EPOCH":"2026-03-09T21:42:54.844416","MEAN_MOTION":15.19558972,"ECCENTRICITY":0.0005838,"INCLINATION":97.4617,"RA_OF_ASC_NODE":184.7149,"ARG_OF_PERICENTER":147.3031,"MEAN_ANOMALY":212.8566,"EPHEMERIS_TYPE":0,"CLASSIFICATION_TYPE":"U","NORAD_CAT_ID":64529,"ELEMENT_SET_NO":999,"REV_AT_EPOCH":3974,"BSTAR":0.00022956142,"MEAN_MOTION_DOT":4.815e-5,"MEAN_MOTION_DDOT":0}]
